[{"OBJECT_NAME":"STARLINK-4366","OBJECT_ID":"2022-084AQ","EPOCH":"2026-03-09T17:57:39.476448","MEAN_MOTION":15.05648965,"ECCENTRICITY":0.00013136,"INCLINATION":97.6028,"RA_OF_ASC_NODE":131.2499,"ARG_OF_PERICENTER":87.4887,"MEAN_ANOMALY":272.649,"EPHEMERIS_TYPE":0,"CLASSIFICATION_TYPE":"U","NORAD_CAT_ID":53227,"ELEMENT_SET_NO":999,"REV_AT_EPOCH":19939,"BSTAR":-9.8133538e-5,"MEAN_MOTION_DOT":-1.476e-5,"MEAN_MOTION_DDOT":0},{"OBJECT_NAME":"MINOTAUR 4 R\/B","OBJECT_ID":"2020-046E","EPOCH":"2026-03-09T23:21:28.488960","MEAN_MOTION":15.06543892,"ECCENTRICITY":0.00095926,"INCLINATION":53.9792,"RA_OF_ASC_NODE":306.0413,"ARG_OF_PERICENTER":86.078,"MEAN_ANOMALY":274.1318,"EPHEMERIS_TYPE":0,"CLASSIFICATION_TYPE":"U","NORAD_CAT_ID":45877,"ELEMENT_SET_NO":999,"REV_AT_EPOCH":23396,"BSTAR":0.00016618262,"MEAN_MOTION_DOT":2.204e-5,"MEAN_MOTION_DDOT":0}]
